start=new Date('2022-08-01T00:00:00.000Z').valueOf();
sats=[{"ECCENTRICITY":"0.00030090","TLE_LINE2":"2 51145  53.2161 101.0439 0003009  69.4342 290.6973 15.08839128 29781","SEMIMAJOR_AXIS":"6917.883","OBJECT_ID":"2022-005AT","EPOCH":"2022-07-31T18:19:36.349824","GP_ID":"209298148","CLASSIFICATION_TYPE":"U","DECAY_DATE":null,"CENTER_NAME":"EARTH","INCLINATION":"53.2161","REF_FRAME":"TEME","MEAN_ELEMENT_THEORY":"SGP4","ARG_OF_PERICENTER":"69.4342","OBJECT_TYPE":"PAYLOAD","MEAN_MOTION_DDOT":"0.0000000000000","MEAN_MOTION":"15.08839128","MEAN_ANOMALY":"290.6973","OBJECT_NAME":"STARLINK-3365","BSTAR":"0.00004573600000","LAUNCH_DATE":"2022-01-19","EPHEMERIS_TYPE":"0","RA_OF_ASC_NODE":"101.0439","MEAN_MOTION_DOT":"0.00000439","COUNTRY_CODE":"US","RCS_SIZE":"LARGE","FILE":"3526413","TLE_LINE1":"1 51145U 22005AT  22212.76361516  .00000439  00000-0  45736-4 0  9994","ELEMENT_SET_NO":"999","PERIAPSIS":"537.666","PERIOD":"95.438","TIME_SYSTEM":"UTC","NORAD_CAT_ID":"51145","SITE":"AFETR","APOAPSIS":"541.830","REV_AT_EPOCH":"2978"},{"SEMIMAJOR_AXIS":"6917.890","TLE_LINE2":"2 51146  53.2184  91.4881 0001975  60.1722 299.9466 15.08836849 29900","ECCENTRICITY":"0.00019750","OBJECT_ID":"2022-005AU","GP_ID":"209297895","CLASSIFICATION_TYPE":"U","EPOCH":"2022-07-31T15:52:33.161088","INCLINATION":"53.2184","CENTER_NAME":"EARTH","DECAY_DATE":null,"ARG_OF_PERICENTER":"60.1722","MEAN_ELEMENT_THEORY":"SGP4","REF_FRAME":"TEME","OBJECT_TYPE":"PAYLOAD","MEAN_MOTION":"15.08836849","MEAN_MOTION_DDOT":"0.0000000000000","EPHEMERIS_TYPE":"0","RA_OF_ASC_NODE":"91.4881","BSTAR":"0.00002417300000","LAUNCH_DATE":"2022-01-19","OBJECT_NAME":"STARLINK-3354","MEAN_ANOMALY":"299.9466","MEAN_MOTION_DOT":"0.00000097","TLE_LINE1":"1 51146U 22005AU  22212.66149492  .00000097  00000-0  24173-4 0  9993","FILE":"3526413","COUNTRY_CODE":"US","RCS_SIZE":"LARGE","PERIAPSIS":"538.389","ELEMENT_SET_NO":"999","SITE":"AFETR","APOAPSIS":"541.121","NORAD_CAT_ID":"51146","TIME_SYSTEM":"UTC","PERIOD":"95.438","REV_AT_EPOCH":"2990"},{"MEAN_MOTION":"15.08838426","MEAN_MOTION_DDOT":"0.0000000000000","RA_OF_ASC_NODE":"101.0079","EPHEMERIS_TYPE":"0","MEAN_ANOMALY":"297.4685","OBJECT_NAME":"STARLINK-3352","LAUNCH_DATE":"2022-01-19","BSTAR":"0.00007773600000","MEAN_MOTION_DOT":"0.00000949","TLE_LINE1":"1 51147U 22005AV  22212.77096898  .00000949  00000-0  77736-4 0  9996","COUNTRY_CODE":"US","RCS_SIZE":"LARGE","FILE":"3526413","PERIAPSIS":"538.542","ELEMENT_SET_NO":"999","NORAD_CAT_ID":"51147","APOAPSIS":"540.958","SITE":"AFETR","PERIOD":"95.438","TIME_SYSTEM":"UTC","REV_AT_EPOCH":"2978","SEMIMAJOR_AXIS":"6917.885","TLE_LINE2":"2 51147  53.2172 101.0079 0001746  62.6485 297.4685 15.08838426 29789","ECCENTRICITY":"0.00017460","OBJECT_ID":"2022-005AV","EPOCH":"2022-07-31T18:30:11.719872","GP_ID":"209297148","CLASSIFICATION_TYPE":"U","CENTER_NAME":"EARTH","INCLINATION":"53.2172","DECAY_DATE":null,"ARG_OF_PERICENTER":"62.6485","REF_FRAME":"TEME","MEAN_ELEMENT_THEORY":"SGP4","OBJECT_TYPE":"PAYLOAD"},{"ECCENTRICITY":"0.00028330","TLE_LINE2":"2 51148  53.2171 100.7514 0002833  65.9463 294.1825 15.08863523 30901","SEMIMAJOR_AXIS":"6917.808","OBJECT_ID":"2022-005AW","GP_ID":"209271758","EPOCH":"2022-07-31T19:49:40.543680","CLASSIFICATION_TYPE":"U","DECAY_DATE":null,"CENTER_NAME":"EARTH","INCLINATION":"53.2171","REF_FRAME":"TEME","MEAN_ELEMENT_THEORY":"SGP4","ARG_OF_PERICENTER":"65.9463","OBJECT_TYPE":"PAYLOAD","MEAN_MOTION_DDOT":"0.0000000000000","MEAN_MOTION":"15.08863523","MEAN_ANOMALY":"294.1825","OBJECT_NAME":"STARLINK-3359","LAUNCH_DATE":"2022-01-19","BSTAR":"-0.00017254000000","RA_OF_ASC_NODE":"100.7514","EPHEMERIS_TYPE":"0","MEAN_MOTION_DOT":"-0.00003036","COUNTRY_CODE":"US","RCS_SIZE":"LARGE","FILE":"3526317","TLE_LINE1":"1 51148U 22005AW  22212.82616370 -.00003036  00000-0 -17254-3 0  9996","ELEMENT_SET_NO":"999","PERIAPSIS":"537.714","PERIOD":"95.436","TIME_SYSTEM":"UTC","NORAD_CAT_ID":"51148","SITE":"AFETR","APOAPSIS":"541.633","REV_AT_EPOCH":"3090"},{"OBJECT_TYPE":"PAYLOAD","CENTER_NAME":"EARTH","INCLINATION":"53.2169","DECAY_DATE":null,"ARG_OF_PERICENTER":"70.7775","REF_FRAME":"TEME","MEAN_ELEMENT_THEORY":"SGP4","OBJECT_ID":"2022-005AX","EPOCH":"2022-07-31T10:12:04.859136","GP_ID":"209267087","CLASSIFICATION_TYPE":"U","TLE_LINE2":"2 51149  53.2169 102.5478 0002316  70.7775 289.3468 15.08836457 29738","SEMIMAJOR_AXIS":"6917.891","ECCENTRICITY":"0.00023160","NORAD_CAT_ID":"51149","APOAPSIS":"541.358","SITE":"AFETR","PERIOD":"95.438","TIME_SYSTEM":"UTC","REV_AT_EPOCH":"2973","TLE_LINE1":"1 51149U 22005AX  22212.42505624  .00000404  00000-0  43502-4 0  9992","COUNTRY_CODE":"US","RCS_SIZE":"LARGE","FILE":"3526169","PERIAPSIS":"538.154","ELEMENT_SET_NO":"999","EPHEMERIS_TYPE":"0","RA_OF_ASC_NODE":"102.5478","MEAN_ANOMALY":"289.3468","OBJECT_NAME":"STARLINK-3360","LAUNCH_DATE":"2022-01-19","BSTAR":"0.00004350200000","MEAN_MOTION_DOT":"0.00000404","MEAN_MOTION":"15.08836457","MEAN_MOTION_DDOT":"0.0000000000000"},{"OBJECT_ID":"2022-005AY","CLASSIFICATION_TYPE":"U","GP_ID":"209298395","EPOCH":"2022-07-31T15:31:20.813952","SEMIMAJOR_AXIS":"6917.877","TLE_LINE2":"2 51150  53.2191  91.5582 0001874  61.2049 298.9131 15.08841156 29910","ECCENTRICITY":"0.00018740","OBJECT_TYPE":"PAYLOAD","CENTER_NAME":"EARTH","INCLINATION":"53.2191","DECAY_DATE":null,"ARG_OF_PERICENTER":"61.2049","REF_FRAME":"TEME","MEAN_ELEMENT_THEORY":"SGP4","RA_OF_ASC_NODE":"91.5582","EPHEMERIS_TYPE":"0","OBJECT_NAME":"STARLINK-3357","MEAN_ANOMALY":"298.9131","LAUNCH_DATE":"2022-01-19","BSTAR":"0.00010597000000","MEAN_MOTION_DOT":"0.00001399","MEAN_MOTION":"15.08841156","MEAN_MOTION_DDOT":"0.0000000000000","NORAD_CAT_ID":"51150","APOAPSIS":"541.038","SITE":"AFETR","PERIOD":"95.437","TIME_SYSTEM":"UTC","REV_AT_EPOCH":"2991","TLE_LINE1":"1 51150U 22005AY  22212.64676868  .00001399  00000-0  10597-3 0  9998","COUNTRY_CODE":"US","RCS_SIZE":"LARGE","FILE":"3526413","PERIAPSIS":"538.445","ELEMENT_SET_NO":"999"},{"ARG_OF_PERICENTER":"61.7119","REF_FRAME":"TEME","MEAN_ELEMENT_THEORY":"SGP4","CENTER_NAME":"EARTH","INCLINATION":"53.2168","DECAY_DATE":null,"OBJECT_TYPE":"PAYLOAD","TLE_LINE2":"2 51151  53.2168 100.7901 0001878  61.7119 298.4062 15.08840202 29795","SEMIMAJOR_AXIS":"6917.880","ECCENTRICITY":"0.00018780","GP_ID":"209296649","EPOCH":"2022-07-31T19:33:47.525760","CLASSIFICATION_TYPE":"U","OBJECT_ID":"2022-005AZ","PERIAPSIS":"538.446","ELEMENT_SET_NO":"999","TLE_LINE1":"1 51151U 22005AZ  22212.81513340  .00001322  00000-0  10114-3 0  9994","COUNTRY_CODE":"US","RCS_SIZE":"LARGE","FILE":"3526413","REV_AT_EPOCH":"2979","NORAD_CAT_ID":"51151","SITE":"AFETR","APOAPSIS":"541.044","PERIOD":"95.438","TIME_SYSTEM":"UTC","MEAN_MOTION":"15.08840202","MEAN_MOTION_DDOT":"0.0000000000000","MEAN_MOTION_DOT":"0.00001322","RA_OF_ASC_NODE":"100.7901","EPHEMERIS_TYPE":"0","OBJECT_NAME":"STARLINK-3361","MEAN_ANOMALY":"298.4062","LAUNCH_DATE":"2022-01-19","BSTAR":"0.00010114000000"},{"REV_AT_EPOCH":"2979","NORAD_CAT_ID":"51152","APOAPSIS":"541.293","SITE":"AFETR","PERIOD":"95.437","TIME_SYSTEM":"UTC","PERIAPSIS":"538.184","ELEMENT_SET_NO":"999","TLE_LINE1":"1 51152U 22005BA  22212.81881234  .00001678  00000-0  12351-3 0  9994","COUNTRY_CODE":"US","RCS_SIZE":"LARGE","FILE":"3526413","MEAN_MOTION_DOT":"0.00001678","RA_OF_ASC_NODE":"100.7798","EPHEMERIS_TYPE":"0","MEAN_ANOMALY":"300.2567","OBJECT_NAME":"STARLINK-3364","LAUNCH_DATE":"2022-01-19","BSTAR":"0.00012351000000","MEAN_MOTION":"15.08842280","MEAN_MOTION_DDOT":"0.0000000000000","OBJECT_TYPE":"PAYLOAD","ARG_OF_PERICENTER":"59.8648","REF_FRAME":"TEME","MEAN_ELEMENT_THEORY":"SGP4","CENTER_NAME":"EARTH","INCLINATION":"53.2173","DECAY_DATE":null,"GP_ID":"209296899","CLASSIFICATION_TYPE":"U","EPOCH":"2022-07-31T19:39:05.386176","OBJECT_ID":"2022-005BA","SEMIMAJOR_AXIS":"6917.873","TLE_LINE2":"2 51152  53.2173 100.7798 0002247  59.8648 300.2567 15.08842280 29792","ECCENTRICITY":"0.00022470"},{"RCS_SIZE":"LARGE","COUNTRY_CODE":"US","FILE":"3526413","TLE_LINE1":"1 51460U 22010E   22212.70012765  .00000157  00000-0  27955-4 0  9993","ELEMENT_SET_NO":"999","PERIAPSIS":"538.558","PERIOD":"95.438","TIME_SYSTEM":"UTC","NORAD_CAT_ID":"51460","SITE":"AFETR","APOAPSIS":"540.931","REV_AT_EPOCH":"2800","MEAN_MOTION_DDOT":"0.0000000000000","MEAN_MOTION":"15.08840407","MEAN_ANOMALY":"294.6788","OBJECT_NAME":"STARLINK-3167","BSTAR":"0.00002795500000","LAUNCH_DATE":"2022-02-03","RA_OF_ASC_NODE":"71.3140","EPHEMERIS_TYPE":"0","MEAN_MOTION_DOT":"0.00000157","DECAY_DATE":null,"CENTER_NAME":"EARTH","INCLINATION":"53.2183","REF_FRAME":"TEME","MEAN_ELEMENT_THEORY":"SGP4","ARG_OF_PERICENTER":"65.4383","OBJECT_TYPE":"PAYLOAD","ECCENTRICITY":"0.00017150","TLE_LINE2":"2 51460  53.2183  71.3140 0001715  65.4383 294.6788 15.08840407 28000","SEMIMAJOR_AXIS":"6917.879","OBJECT_ID":"2022-010E","EPOCH":"2022-07-31T16:48:11.028960","GP_ID":"209298160","CLASSIFICATION_TYPE":"U"},{"OBJECT_TYPE":"PAYLOAD","ARG_OF_PERICENTER":"58.7137","MEAN_ELEMENT_THEORY":"SGP4","REF_FRAME":"TEME","INCLINATION":"53.2187","CENTER_NAME":"EARTH","DECAY_DATE":null,"GP_ID":"209297907","CLASSIFICATION_TYPE":"U","EPOCH":"2022-07-31T17:14:41.820576","OBJECT_ID":"2022-010F","SEMIMAJOR_AXIS":"6917.904","TLE_LINE2":"2 51461  53.2187  71.2387 0001568  58.7137 301.4008 15.08832113 28002","ECCENTRICITY":"0.00015680","REV_AT_EPOCH":"2800","SITE":"AFETR","APOAPSIS":"540.854","NORAD_CAT_ID":"51461","TIME_SYSTEM":"UTC","PERIOD":"95.438","PERIAPSIS":"538.685","ELEMENT_SET_NO":"999","TLE_LINE1":"1 51461U 22010F   22212.71853959 -.00000354  00000-0 -41495-5 0  9990","FILE":"3526413","COUNTRY_CODE":"US","RCS_SIZE":"LARGE","MEAN_MOTION_DOT":"-0.00000354","EPHEMERIS_TYPE":"0","RA_OF_ASC_NODE":"71.2387","LAUNCH_DATE":"2022-02-03","BSTAR":"-0.00000414950000","MEAN_ANOMALY":"301.4008","OBJECT_NAME":"STARLINK-3181","MEAN_MOTION":"15.08832113","MEAN_MOTION_DDOT":"0.0000000000000"}];
